{"type":"FeatureCollection","features":[{"type":"Feature","id":0,"properties":{"STATE_CODE":"1","STATE_NAME":"New South Wales"},"geometry":{"type":"Polygon","coordinates":[[[151.25,-33.85],[151.05,-33.82],[151.19,-33.88],[151.28,-33.85],[151.28,-33.83],[151.27,-33.97],[151.12,-33.99],[151.23,-34.03],[151.06,-34.06],[151.17,-34.09],[150.93,-34.32],[150.92,-34.49],[150.8,-34.55],[150.9,-34.6],[150.75,-34.86],[150.83,-35.07],[150.75,-34.99],[150.67,-35.04],[150.7,-35.12],[150.56,-35.09],[150.55,-35.1],[150.6,-35.19],[150.48,-35.29],[150.41,-35.53],[150.28,-35.72],[150.18,-35.7],[150.24,-35.84],[150.15,-35.89],[150.15,-36.27],[149.9,-36.91],[149.94,-37.05],[149.87,-37.08],[150.0,-37.14],[150.05,-37.26],[149.94,-37.28],[149.98,-37.51],[148.11,-36.8],[148.22,-36.6],[148.04,-36.39],[148.0,-36.05],[147.71,-35.93],[147.55,-36.0],[147.4,-35.94],[147.32,-36.06],[147.12,-35.99],[147.05,-36.11],[146.94,-36.12],[146.61,-35.97],[146.19,-36.04],[145.9,-35.95],[145.81,-35.99],[145.54,-35.8],[145.36,-35.87],[145.13,-35.82],[144.99,-35.85],[144.92,-35.99],[144.98,-36.07],[144.62,-36.08],[144.35,-35.77],[143.97,-35.5],[143.62,-35.39],[143.57,-35.21],[143.39,-35.19],[143.32,-35.04],[143.35,-34.79],[143.11,-34.68],[142.89,-34.68],[142.79,-34.55],[142.64,-34.78],[142.52,-34.76],[142.47,-34.56],[142.37,-34.53],[142.4,-34.34],[142.24,-34.31],[142.22,-34.18],[142.04,-34.1],[141.68,-34.1],[141.51,-34.22],[141.5,-34.16],[141.0,-34.02],[141.0,-29.0],[148.96,-29.0],[149.5,-28.57],[149.7,-28.63],[150.29,-28.54],[150.45,-28.67],[150.75,-28.63],[151.01,-28.74],[151.05,-28.84],[151.27,-28.94],[151.28,-29.1],[151.39,-29.18],[151.55,-28.95],[151.71,-28.87],[151.78,-28.96],[152.01,-28.91],[152.08,-28.71],[151.96,-28.52],[152.39,-28.37],[152.46,-28.26],[152.58,-28.34],[152.61,-28.27],[152.75,-28.36],[152.88,-28.31],[153.11,-28.36],[153.18,-28.25],[153.56,-28.17],[153.51,-28.19],[153.49,-28.22],[153.55,-28.24],[153.56,-28.17],[153.59,-28.26],[153.61,-28.84],[153.53,-28.87],[153.59,-28.88],[153.34,-29.3],[153.33,-29.67],[152.99,-30.73],[153.09,-30.91],[153.06,-31.06],[152.75,-31.85],[152.51,-32.12],[152.54,-32.44],[152.34,-32.53],[152.21,-32.7],[151.97,-32.65],[151.94,-32.74],[152.19,-32.71],[152.17,-32.76],[151.79,-32.92],[151.73,-32.88],[151.79,-32.93],[151.8,-32.92],[151.66,-33.08],[151.61,-32.97],[151.61,-33.08],[151.51,-33.14],[151.57,-33.18],[151.58,-33.1],[151.6,-33.16],[151.64,-33.07],[151.64,-33.18],[151.5,-33.34],[151.56,-33.24],[151.44,-33.31],[151.5,-33.36],[151.42,-33.52],[151.26,-33.57],[151.24,-33.45],[151.19,-33.49],[151.2,-33.52],[151.2,-33.54],[151.18,-33.5],[151.16,-33.51],[151.17,-33.43],[151.07,-33.45],[151.16,-33.47],[151.1,-33.59],[151.18,-33.51],[151.25,-33.58],[151.15,-33.66],[151.29,-33.57],[151.31,-33.67],[151.34,-33.58],[151.3,-33.82],[151.2,-33.77],[151.25,-33.85]],[[151.31,-33.7],[151.28,-33.71],[151.27,-33.71],[151.31,-33.7]],[[151.69,-32.82],[151.78,-32.88],[151.82,-32.83],[151.69,-32.82]],[[151.7,-32.85],[151.71,-32.87],[151.73,-32.88],[151.7,-32.85]],[[151.59,-33.21],[151.56,-33.21],[151.55,-33.23],[151.59,-33.21]],[[151.34,-33.51],[151.37,-33.44],[151.31,-33.46],[151.34,-33.51]],[[151.03,-33.98],[151.05,-34.02],[151.12,-34.0],[151.03,-33.98]],[[149.4,-35.32],[149.12,-35.12],[148.81,-35.31],[148.77,-35.65],[148.86,-35.76],[148.89,-35.72],[148.91,-35.85],[149.05,-35.92],[149.15,-35.41],[149.4,-35.32]]]}},{"type":"Feature","id":1,"properties":{"STATE_CODE":"2","STATE_NAME":"Victoria"},"geometry":{"type":"Polygon","coordinates":[[[145.23,-38.41],[144.89,-38.5],[144.65,-38.3],[144.92,-38.35],[145.12,-38.15],[145.1,-38.03],[144.9,-37.84],[144.51,-38.09],[144.36,-38.11],[144.48,-38.16],[144.69,-38.12],[144.67,-38.27],[144.33,-38.32],[143.51,-38.86],[142.37,-38.35],[142.15,-38.39],[141.74,-38.25],[141.6,-38.31],[141.63,-38.41],[141.37,-38.39],[141.3,-38.22],[140.97,-38.06],[140.96,-33.98],[141.02,-34.06],[141.49,-34.15],[141.51,-34.22],[141.68,-34.1],[142.04,-34.1],[142.22,-34.18],[142.24,-34.31],[142.4,-34.34],[142.37,-34.53],[142.47,-34.56],[142.52,-34.76],[142.64,-34.78],[142.79,-34.55],[142.88,-34.67],[143.11,-34.68],[143.35,-34.79],[143.32,-35.04],[143.39,-35.19],[143.57,-35.21],[143.62,-35.39],[143.97,-35.5],[144.73,-36.12],[144.98,-36.07],[144.92,-35.99],[144.99,-35.85],[145.54,-35.8],[145.81,-35.99],[146.37,-36.05],[146.5,-35.96],[146.94,-36.12],[147.05,-36.11],[147.12,-35.99],[147.32,-36.06],[147.4,-35.94],[147.91,-36.0],[148.04,-36.14],[148.04,-36.39],[148.22,-36.6],[148.1,-36.79],[149.98,-37.51],[149.78,-37.56],[149.48,-37.78],[148.29,-37.81],[147.79,-37.96],[146.88,-38.63],[146.93,-38.59],[146.58,-38.7],[146.21,-38.69],[146.29,-38.9],[146.48,-38.79],[146.43,-39.13],[146.35,-39.13],[146.13,-38.84],[146.03,-38.81],[145.92,-38.91],[145.77,-38.67],[145.61,-38.68],[145.37,-38.54],[145.42,-38.41],[145.55,-38.37],[145.49,-38.23],[145.25,-38.22],[145.18,-38.37],[145.23,-38.41]],[[146.84,-38.62],[146.79,-38.63],[146.79,-38.63],[146.84,-38.62]]]}},{"type":"Feature","id":2,"properties":{"STATE_CODE":"3","STATE_NAME":"Queensland"},"geometry":{"type":"Polygon","coordinates":[[[141.66,-15.0],[141.53,-14.49],[141.6,-14.1],[141.47,-13.86],[141.52,-13.57],[141.7,-13.27],[141.58,-13.0],[141.89,-12.59],[141.71,-12.52],[141.59,-12.56],[141.85,-11.98],[141.91,-11.96],[141.92,-12.17],[142.01,-12.04],[141.94,-11.95],[142.12,-11.37],[142.13,-10.95],[142.32,-10.92],[142.44,-10.71],[142.53,-10.69],[142.61,-10.75],[142.48,-10.98],[142.59,-10.87],[142.79,-11.07],[142.87,-11.38],[142.86,-11.85],[143.24,-11.97],[143.08,-12.16],[143.08,-12.34],[143.27,-12.39],[143.27,-12.51],[143.44,-12.61],[143.35,-12.9],[143.54,-12.84],[143.52,-13.26],[143.6,-13.42],[143.53,-13.75],[143.78,-14.4],[144.03,-14.48],[144.2,-14.26],[144.34,-14.31],[144.52,-14.17],[144.69,-14.57],[144.91,-14.61],[144.96,-14.74],[145.35,-14.95],[145.23,-15.14],[145.26,-15.25],[145.36,-15.28],[145.23,-15.46],[145.48,-16.08],[145.41,-16.46],[145.78,-16.94],[145.85,-16.87],[145.96,-16.9],[145.89,-17.06],[146.07,-17.39],[146.03,-17.55],[146.07,-17.51],[146.15,-17.65],[146.02,-18.25],[146.19,-18.47],[146.34,-18.53],[146.29,-18.89],[146.45,-19.07],[146.77,-19.18],[146.88,-19.3],[146.96,-19.31],[147.02,-19.18],[147.13,-19.42],[147.44,-19.42],[147.42,-19.32],[147.67,-19.83],[147.78,-19.82],[147.75,-19.71],[147.82,-19.71],[147.92,-19.91],[148.08,-19.88],[148.26,-19.98],[148.23,-20.05],[148.35,-20.16],[148.47,-20.14],[148.45,-20.06],[148.56,-20.07],[148.58,-20.2],[148.68,-20.18],[148.67,-20.28],[148.77,-20.24],[148.93,-20.53],[148.76,-20.42],[148.76,-20.48],[148.68,-20.44],[148.66,-20.59],[148.84,-20.88],[149.05,-20.9],[149.01,-20.99],[149.23,-21.06],[149.22,-21.15],[149.22,-21.12],[149.16,-21.13],[149.15,-21.14],[149.22,-21.15],[149.18,-21.28],[149.3,-21.27],[149.29,-21.51],[149.4,-21.49],[149.44,-21.59],[149.48,-21.53],[149.42,-21.77],[149.47,-21.93],[149.6,-22.28],[149.77,-22.37],[149.75,-22.44],[149.81,-22.38],[150.05,-22.66],[149.91,-22.34],[150.04,-22.13],[150.18,-22.36],[150.55,-22.62],[150.56,-22.32],[150.65,-22.35],[150.63,-22.44],[150.67,-22.35],[150.75,-22.45],[150.72,-22.52],[150.64,-22.47],[150.71,-22.64],[150.78,-22.53],[150.84,-22.68],[150.75,-23.13],[150.83,-23.24],[150.77,-23.3],[150.87,-23.48],[150.79,-23.51],[150.88,-23.55],[150.86,-23.62],[150.93,-23.54],[150.93,-23.62],[151.03,-23.57],[151.44,-24.08],[151.49,-24.07],[151.44,-23.99],[151.54,-24.03],[151.55,-24.11],[151.57,-24.04],[151.68,-24.1],[151.61,-23.98],[151.73,-24.02],[151.72,-24.09],[151.76,-24.02],[152.04,-24.53],[152.47,-24.82],[152.53,-25.09],[152.63,-25.15],[152.54,-25.19],[152.55,-25.2],[152.91,-25.29],[152.92,-25.43],[152.82,-25.49],[152.96,-25.43],[152.86,-25.55],[152.94,-25.82],[153.02,-25.83],[153.01,-25.99],[153.05,-25.81],[153.19,-25.93],[153.06,-26.31],[153.15,-26.8],[153.02,-26.99],[153.14,-27.08],[153.02,-27.12],[153.16,-27.38],[153.05,-27.46],[153.19,-27.37],[153.19,-27.48],[153.32,-27.58],[153.3,-27.71],[153.38,-27.71],[153.37,-27.65],[153.42,-27.64],[153.43,-27.78],[153.37,-27.8],[153.45,-28.08],[153.55,-28.16],[153.18,-28.25],[153.11,-28.36],[152.88,-28.31],[152.75,-28.36],[152.61,-28.27],[152.58,-28.34],[152.46,-28.26],[152.39,-28.37],[151.96,-28.52],[152.08,-28.71],[152.01,-28.91],[151.78,-28.96],[151.71,-28.87],[151.55,-28.95],[151.39,-29.18],[151.28,-29.1],[151.27,-28.94],[151.05,-28.84],[151.01,-28.74],[150.75,-28.63],[150.45,-28.67],[150.29,-28.54],[149.7,-28.63],[149.5,-28.57],[148.96,-29.0],[141.0,-29.0],[141.0,-26.0],[138.0,-26.0],[138.0,-16.54],[138.32,-16.75],[138.63,-16.77],[139.04,-16.91],[139.16,-17.03],[139.24,-17.32],[140.0,-17.71],[140.59,-17.6],[140.89,-17.38],[140.96,-17.0],[141.3,-16.5],[141.43,-16.07],[141.37,-15.92],[141.43,-15.66],[141.66,-15.0]],[[153.38,-27.88],[153.34,-27.89],[153.35,-27.92],[153.38,-27.88]],[[153.38,-27.86],[153.37,-27.85],[153.36,-27.85],[153.38,-27.86]],[[153.0,-27.49],[153.0,-27.47],[152.99,-27.49],[153.02,-27.49],[153.02,-27.5],[153.0,-27.51],[153.01,-27.52],[153.02,-27.49],[153.0,-27.49]],[[152.97,-27.51],[152.97,-27.5],[152.97,-27.51],[152.97,-27.54],[152.94,-27.53],[152.93,-27.53],[152.89,-27.58],[152.91,-27.6],[152.86,-27.6],[152.91,-27.6],[152.91,-27.56],[152.9,-27.54],[152.94,-27.53],[152.97,-27.54],[152.97,-27.51]]]}},{"type":"Feature","id":3,"properties":{"STATE_CODE":"4","STATE_NAME":"South Australia"},"geometry":{"type":"Polygon","coordinates":[[[138.5,-34.84],[138.57,-34.83],[138.54,-34.75],[138.27,-34.48],[138.08,-34.13],[137.89,-34.51],[137.76,-35.11],[137.64,-35.17],[137.42,-35.1],[137.17,-35.24],[136.82,-35.25],[137.01,-34.89],[137.45,-34.91],[137.51,-34.62],[137.48,-34.44],[137.42,-34.46],[137.5,-34.23],[137.45,-34.14],[137.52,-34.13],[137.6,-33.88],[137.98,-33.56],[137.81,-33.27],[138.05,-33.12],[137.95,-33.01],[137.94,-32.76],[137.84,-32.7],[137.75,-32.42],[137.79,-33.0],[137.64,-32.96],[137.45,-33.13],[137.21,-33.66],[136.59,-33.9],[136.11,-34.36],[136.09,-34.54],[136.06,-34.48],[135.93,-34.53],[135.94,-34.65],[135.85,-34.67],[135.89,-34.75],[135.79,-34.81],[136.01,-34.74],[135.95,-35.01],[135.79,-34.86],[135.62,-34.94],[135.25,-34.55],[135.11,-34.59],[135.21,-34.43],[135.22,-34.5],[135.35,-34.52],[135.3,-34.55],[135.37,-34.64],[135.52,-34.61],[135.43,-34.6],[135.41,-34.51],[135.39,-34.6],[135.25,-33.98],[134.83,-33.63],[134.85,-33.44],[134.66,-33.23],[134.7,-33.17],[134.56,-33.16],[134.63,-33.25],[134.45,-33.14],[134.37,-33.18],[134.28,-33.03],[134.28,-33.02],[134.33,-33.2],[134.23,-33.04],[134.17,-33.06],[134.2,-32.96],[134.06,-32.91],[134.14,-32.84],[134.06,-32.72],[134.17,-32.72],[134.2,-32.73],[134.15,-32.72],[134.22,-32.79],[134.27,-32.57],[134.06,-32.44],[133.85,-32.54],[133.87,-32.4],[133.95,-32.39],[133.82,-32.23],[133.68,-32.2],[133.67,-32.1],[133.39,-32.16],[133.49,-32.2],[133.49,-32.21],[133.13,-32.21],[132.75,-31.95],[132.2,-32.03],[131.76,-31.72],[131.15,-31.46],[130.81,-31.61],[130.15,-31.58],[129.0,-31.69],[129.0,-26.0],[141.0,-26.0],[140.97,-38.06],[140.66,-38.06],[140.4,-37.92],[140.12,-37.53],[139.99,-37.49],[139.74,-37.18],[139.8,-37.14],[139.67,-36.96],[139.84,-36.84],[139.85,-36.65],[139.38,-35.89],[138.76,-35.52],[138.52,-35.64],[138.1,-35.63],[138.44,-35.35],[138.5,-34.76],[138.5,-34.84]]]}},{"type":"Feature","id":4,"properties":{"STATE_CODE":"5","STATE_NAME":"Western Australia"},"geometry":{"type":"Polygon","coordinates":[[[113.39,-26.39],[113.35,-26.3],[113.34,-26.3],[113.36,-26.02],[113.51,-26.36],[113.49,-26.48],[113.54,-26.28],[113.6,-26.61],[113.63,-26.46],[113.66,-26.67],[113.88,-26.51],[113.88,-26.34],[113.69,-26.22],[113.58,-26.1],[113.47,-25.71],[113.47,-25.79],[113.41,-25.72],[113.51,-25.5],[113.76,-25.88],[113.7,-26.2],[113.81,-26.18],[113.88,-25.95],[113.97,-26.34],[114.08,-26.47],[114.24,-26.31],[114.19,-25.98],[114.27,-25.98],[114.27,-25.89],[114.0,-25.62],[113.82,-25.17],[113.67,-25.02],[113.71,-24.85],[113.62,-24.86],[113.62,-24.75],[113.41,-24.48],[113.39,-24.22],[113.47,-23.9],[113.78,-23.48],[113.76,-23.12],[113.83,-22.96],[113.65,-22.58],[114.02,-21.85],[114.19,-21.81],[114.08,-22.15],[114.12,-22.33],[114.18,-22.31],[114.14,-22.54],[114.28,-22.43],[114.34,-22.52],[114.65,-21.84],[114.91,-21.69],[115.49,-21.55],[115.62,-21.35],[115.83,-21.25],[115.92,-21.08],[116.15,-21.01],[116.2,-20.83],[116.46,-20.84],[116.64,-20.67],[116.6,-20.73],[116.66,-20.74],[116.81,-20.53],[116.87,-20.53],[116.83,-20.71],[116.92,-20.74],[117.18,-20.59],[117.17,-20.7],[117.38,-20.78],[117.63,-20.66],[117.66,-20.72],[117.81,-20.67],[117.88,-20.55],[117.98,-20.55],[117.94,-20.48],[118.18,-20.34],[118.2,-20.4],[118.85,-20.29],[119.1,-19.96],[119.57,-20.08],[119.76,-19.96],[120.2,-19.91],[121.11,-19.54],[121.51,-19.09],[121.65,-18.84],[121.62,-18.71],[121.79,-18.66],[121.73,-18.58],[121.82,-18.45],[121.9,-18.46],[122.37,-18.12],[122.38,-17.99],[122.18,-17.97],[122.17,-17.26],[122.32,-17.16],[122.25,-17.12],[122.37,-17.0],[122.48,-16.98],[122.48,-16.89],[122.61,-16.97],[122.53,-16.84],[122.58,-16.76],[122.85,-16.79],[122.74,-16.68],[122.93,-16.39],[123.04,-16.36],[123.08,-16.44],[122.98,-16.47],[122.95,-16.58],[123.14,-16.69],[123.15,-16.92],[123.58,-17.58],[123.65,-17.18],[123.58,-17.03],[123.65,-17.0],[123.91,-17.21],[123.8,-17.0],[123.96,-16.85],[123.8,-16.91],[123.71,-16.75],[123.5,-16.66],[123.62,-16.55],[123.51,-16.6],[123.43,-16.5],[123.64,-16.53],[123.58,-16.5],[123.65,-16.47],[123.51,-16.38],[123.67,-16.44],[123.63,-16.36],[123.72,-16.37],[123.55,-16.28],[123.62,-16.26],[123.56,-16.18],[123.77,-16.17],[123.81,-16.22],[123.74,-16.26],[123.87,-16.33],[123.87,-16.45],[123.88,-16.3],[123.99,-16.37],[123.91,-16.21],[124.18,-16.31],[124.2,-16.4],[124.39,-16.45],[124.41,-16.54],[124.47,-16.5],[124.39,-16.42],[124.34,-16.42],[124.39,-16.35],[124.45,-16.41],[124.84,-16.43],[124.92,-16.42],[124.95,-16.39],[124.39,-16.34],[124.44,-16.07],[124.51,-16.21],[124.65,-16.1],[124.59,-16.12],[124.61,-15.9],[124.74,-15.82],[124.7,-15.74],[124.63,-15.78],[124.5,-16.0],[124.37,-15.67],[124.5,-15.64],[124.4,-15.62],[124.42,-15.55],[124.52,-15.47],[124.63,-15.53],[124.65,-15.42],[124.67,-15.5],[124.74,-15.36],[124.66,-15.35],[124.71,-15.25],[124.75,-15.35],[124.85,-15.3],[124.98,-15.41],[125.02,-15.54],[125.09,-15.46],[125.42,-15.7],[125.07,-15.44],[125.16,-15.33],[125.09,-15.34],[125.12,-15.26],[124.9,-15.34],[124.93,-15.23],[125.01,-15.24],[125.06,-15.16],[124.97,-15.16],[124.88,-15.26],[124.9,-15.17],[124.83,-15.16],[125.03,-15.11],[125.01,-14.98],[125.07,-14.98],[125.16,-15.15],[125.28,-15.1],[125.48,-15.15],[125.36,-15.11],[125.48,-15.0],[125.21,-14.97],[125.33,-14.88],[125.21,-14.86],[125.14,-14.75],[125.31,-14.65],[125.2,-14.65],[125.36,-14.51],[125.43,-14.64],[125.52,-14.5],[125.53,-14.56],[125.6,-14.56],[125.6,-14.24],[125.73,-14.28],[125.66,-14.34],[125.65,-14.65],[125.71,-14.49],[125.81,-14.44],[125.83,-14.59],[125.94,-14.64],[125.92,-14.54],[126.05,-14.53],[125.98,-14.39],[126.09,-14.35],[126.05,-14.25],[126.17,-14.15],[125.99,-14.07],[125.98,-13.99],[126.01,-14.07],[126.04,-13.98],[126.1,-14.04],[126.01,-13.93],[126.16,-13.92],[126.11,-14.03],[126.19,-13.97],[126.22,-13.97],[126.15,-14.07],[126.21,-14.08],[126.25,-14.24],[126.36,-14.19],[126.3,-14.14],[126.33,-14.05],[126.54,-13.93],[126.45,-14.08],[126.53,-14.08],[126.6,-14.24],[126.64,-14.08],[126.69,-14.13],[126.76,-14.05],[126.71,-13.97],[126.91,-13.99],[126.74,-13.79],[126.84,-13.82],[126.88,-13.75],[127.05,-13.81],[127.14,-13.98],[127.19,-13.9],[127.21,-13.97],[127.25,-13.9],[127.43,-13.94],[127.45,-14.06],[127.67,-14.19],[127.95,-14.59],[128.22,-14.72],[128.12,-14.86],[128.04,-15.29],[128.09,-15.39],[128.0,-15.52],[128.11,-15.43],[128.13,-15.18],[128.26,-15.31],[128.33,-15.51],[128.34,-15.5],[128.19,-15.09],[128.27,-14.98],[128.33,-15.04],[128.31,-14.93],[128.36,-15.07],[128.36,-14.99],[128.41,-15.03],[128.36,-14.89],[128.52,-15.01],[128.39,-14.8],[128.55,-14.77],[129.0,-14.88],[129.0,-31.69],[128.31,-31.98],[127.33,-32.26],[126.67,-32.31],[126.2,-32.23],[125.95,-32.29],[124.81,-32.87],[124.24,-33.02],[124.1,-33.18],[123.98,-33.56],[123.53,-33.94],[123.37,-33.9],[123.16,-34.02],[123.02,-33.86],[122.62,-33.89],[122.57,-33.96],[122.36,-33.91],[122.11,-34.02],[122.0,-33.83],[121.79,-33.91],[121.36,-33.82],[120.59,-33.89],[120.44,-33.97],[120.04,-33.92],[119.6,-34.13],[119.46,-34.29],[119.58,-34.39],[119.42,-34.37],[119.42,-34.46],[119.29,-34.45],[119.25,-34.53],[118.91,-34.46],[118.76,-34.55],[118.72,-34.66],[118.44,-34.76],[118.4,-34.92],[118.18,-34.94],[118.19,-35.02],[117.96,-35.01],[117.95,-34.94],[117.85,-35.04],[118.02,-35.11],[117.69,-35.04],[117.61,-35.13],[117.55,-35.08],[117.49,-35.09],[117.36,-35.02],[117.33,-35.02],[117.36,-35.01],[117.4,-35.0],[117.47,-35.02],[117.46,-34.97],[117.15,-35.06],[116.48,-35.02],[116.26,-34.88],[116.0,-34.84],[115.58,-34.42],[115.17,-34.32],[115.18,-34.27],[115.13,-34.38],[115.02,-34.25],[115.0,-33.53],[115.12,-33.62],[115.37,-33.64],[115.67,-33.32],[115.61,-32.67],[115.7,-32.52],[115.71,-32.52],[115.64,-32.62],[115.71,-32.79],[115.67,-32.62],[115.78,-32.6],[115.68,-32.27],[115.77,-32.19],[115.73,-32.06],[115.86,-32.05],[115.86,-32.03],[115.85,-31.97],[115.9,-31.95],[115.91,-31.95],[115.97,-31.89],[115.77,-31.99],[115.76,-32.04],[115.72,-32.05],[115.69,-31.65],[115.06,-30.51],[114.95,-30.05],[115.0,-29.49],[114.87,-29.12],[114.58,-28.78],[114.53,-28.49],[114.17,-28.11],[114.11,-27.85],[114.16,-27.71],[113.97,-27.23],[113.16,-26.15],[113.27,-26.24],[113.3,-26.02],[113.33,-26.34],[113.39,-26.39]]]}},{"type":"Feature","id":5,"properties":{"STATE_CODE":"6","STATE_NAME":"Tasmania"},"geometry":{"type":"MultiPolygon","coordinates":[[[[144.75,-41.06],[144.61,-41.01],[144.71,-40.86],[144.73,-40.64],[144.77,-40.74],[144.98,-40.74],[145.12,-40.84],[145.26,-40.81],[145.26,-40.71],[145.32,-40.85],[145.51,-40.85],[146.25,-41.2],[146.36,-41.16],[146.35,-41.22],[146.39,-41.24],[146.37,-41.17],[146.53,-41.12],[146.61,-41.26],[146.56,-41.15],[146.77,-41.08],[146.82,-41.14],[146.76,-41.15],[146.77,-41.17],[146.92,-41.17],[146.9,-41.2],[146.97,-41.31],[147.12,-41.44],[146.91,-41.21],[146.97,-41.19],[146.79,-41.05],[147.02,-40.98],[147.16,-41.03],[147.28,-40.94],[147.35,-40.94],[147.4,-41.01],[147.43,-41.01],[147.67,-40.82],[147.87,-40.88],[147.94,-40.74],[148.08,-40.77],[148.35,-40.99],[148.25,-41.05],[148.25,-41.19],[148.34,-41.26],[148.24,-41.32],[148.36,-41.28],[148.25,-41.49],[148.32,-41.62],[148.3,-42.17],[148.36,-42.18],[148.31,-42.28],[148.25,-42.24],[148.3,-42.13],[148.22,-42.07],[148.16,-42.07],[148.24,-41.99],[148.09,-42.08],[148.24,-42.1],[148.12,-42.09],[148.05,-42.12],[148.08,-42.17],[147.93,-42.34],[148.02,-42.32],[148.01,-42.51],[147.88,-42.55],[147.96,-42.67],[147.79,-42.9],[147.61,-42.87],[147.6,-42.8],[147.59,-42.78],[147.43,-42.77],[147.48,-42.83],[147.58,-42.83],[147.61,-42.85],[147.53,-42.85],[147.5,-42.86],[147.55,-42.99],[147.52,-43.02],[147.42,-43.05],[147.39,-42.98],[147.47,-43.03],[147.48,-42.91],[147.41,-42.94],[147.26,-42.73],[147.26,-42.76],[147.2,-42.73],[147.11,-42.77],[147.2,-42.74],[147.32,-42.83],[147.34,-43.05],[147.28,-43.01],[147.27,-43.02],[147.26,-43.22],[147.17,-43.28],[147.08,-43.16],[147.06,-43.23],[146.98,-43.19],[147.03,-43.06],[146.95,-43.16],[147.1,-43.29],[146.98,-43.33],[147.06,-43.35],[147.03,-43.44],[146.92,-43.42],[147.0,-43.48],[146.9,-43.52],[146.92,-43.6],[146.71,-43.63],[146.56,-43.46],[146.6,-43.54],[146.22,-43.49],[146.03,-43.57],[146.0,-43.41],[145.92,-43.38],[145.99,-43.39],[145.99,-43.33],[146.14,-43.41],[146.23,-43.32],[146.0,-43.34],[145.92,-43.21],[145.86,-43.27],[145.93,-43.3],[145.84,-43.32],[145.68,-43.05],[145.49,-42.99],[145.37,-42.66],[145.26,-42.62],[145.3,-42.57],[145.17,-42.2],[145.45,-42.4],[145.46,-42.5],[145.47,-42.53],[145.46,-42.43],[145.61,-42.45],[145.62,-42.45],[145.51,-42.43],[145.56,-42.36],[145.48,-42.36],[145.33,-42.15],[145.22,-42.22],[145.2,-41.94],[144.91,-41.69],[145.05,-41.6],[144.92,-41.67],[144.75,-41.42],[144.66,-41.06],[144.75,-41.06]],[[145.06,-41.63],[145.08,-41.66],[145.1,-41.66],[145.06,-41.63]],[[145.39,-42.2],[145.41,-42.2],[145.41,-42.2],[145.39,-42.2]],[[145.43,-42.19],[145.49,-42.19],[145.5,-42.18],[145.43,-42.19]],[[147.53,-42.99],[147.52,-42.96],[147.51,-42.97],[147.53,-42.99]],[[146.15,-41.16],[146.13,-41.16],[146.12,-41.16],[146.15,-41.16]],[[147.05,-43.04],[147.03,-43.01],[147.0,-43.02],[147.05,-43.04]],[[145.92,-43.21],[145.92,-43.16],[145.94,-43.15],[145.92,-43.21]],[[145.61,-42.44],[145.67,-42.44],[145.67,-42.56],[145.74,-42.59],[145.67,-42.56],[145.67,-42.44],[145.61,-42.44]],[[145.25,-42.03],[145.25,-42.02],[145.27,-42.02],[145.25,-42.03]]],[[[148.33,-40.21],[148.05,-40.25],[148.01,-40.11],[147.86,-40.02],[147.88,-39.91],[147.75,-39.87],[147.96,-39.73],[148.18,-39.95],[148.29,-39.97],[148.22,-40.12],[148.29,-40.08],[148.33,-40.21]]]]}},{"type":"Feature","id":6,"properties":{"STATE_CODE":"7","STATE_NAME":"Northern Territory"},"geometry":{"type":"Polygon","coordinates":[[[130.46,-12.64],[130.62,-12.77],[130.62,-12.71],[130.69,-12.75],[130.74,-12.71],[130.59,-12.68],[130.55,-12.63],[130.64,-12.64],[130.57,-12.58],[130.62,-12.38],[130.77,-12.44],[130.73,-12.6],[130.78,-12.56],[130.79,-12.62],[130.81,-12.54],[130.87,-12.66],[130.97,-12.63],[130.86,-12.53],[130.95,-12.56],[130.95,-12.47],[130.82,-12.41],[130.9,-12.33],[131.06,-12.35],[131.03,-12.15],[131.17,-12.17],[131.22,-12.23],[131.22,-12.28],[131.23,-12.29],[131.3,-12.04],[131.32,-12.19],[131.43,-12.28],[131.88,-12.21],[132.07,-12.3],[132.24,-12.17],[132.39,-12.24],[132.63,-12.09],[132.66,-11.89],[132.58,-11.79],[132.65,-11.72],[132.65,-11.69],[132.5,-11.68],[132.62,-11.65],[132.49,-11.48],[132.24,-11.46],[132.11,-11.54],[131.94,-11.32],[131.76,-11.32],[131.88,-11.18],[131.96,-11.25],[131.99,-11.12],[132.11,-11.21],[132.17,-11.42],[132.24,-11.34],[132.17,-11.32],[132.14,-11.12],[132.28,-11.28],[132.33,-11.12],[132.37,-11.3],[132.45,-11.22],[132.67,-11.52],[132.9,-11.43],[132.92,-11.33],[133.19,-11.73],[133.34,-11.69],[133.32,-11.77],[133.53,-11.76],[133.61,-11.84],[133.79,-11.72],[133.92,-11.74],[133.83,-11.86],[133.91,-11.93],[134.03,-11.85],[134.07,-11.94],[134.13,-11.9],[134.17,-12.11],[134.25,-11.98],[134.49,-12.08],[134.75,-11.95],[134.86,-12.13],[135.21,-12.3],[135.16,-12.23],[135.34,-12.25],[135.22,-12.19],[135.37,-12.08],[135.57,-12.1],[135.65,-12.04],[135.91,-11.95],[135.65,-12.2],[135.71,-12.31],[136.05,-12.06],[135.93,-12.22],[135.95,-12.28],[136.06,-12.24],[135.97,-12.39],[136.02,-12.49],[136.06,-12.43],[136.26,-12.46],[136.36,-12.23],[136.17,-12.16],[136.56,-11.88],[136.45,-11.99],[136.49,-12.04],[136.53,-11.99],[136.65,-12.27],[136.74,-12.27],[136.68,-12.21],[136.78,-12.16],[136.98,-12.35],[136.77,-12.56],[136.79,-12.45],[136.72,-12.46],[136.75,-12.53],[136.67,-12.59],[136.75,-12.55],[136.76,-12.58],[136.69,-12.71],[136.62,-12.69],[136.62,-12.84],[136.55,-12.74],[136.54,-12.81],[136.46,-12.77],[136.67,-13.0],[136.46,-12.98],[136.57,-13.06],[136.47,-13.25],[136.33,-13.32],[136.39,-13.23],[136.33,-13.03],[136.32,-13.16],[136.22,-13.14],[136.18,-13.28],[136.15,-13.12],[136.05,-13.31],[136.01,-13.21],[135.92,-13.27],[135.88,-13.36],[135.97,-13.4],[135.86,-13.44],[135.88,-13.71],[135.96,-13.74],[136.08,-13.66],[135.91,-13.99],[135.9,-14.19],[135.7,-14.27],[135.54,-14.65],[135.38,-14.73],[135.48,-14.98],[136.24,-15.42],[136.32,-15.63],[136.56,-15.75],[136.72,-15.7],[136.64,-15.77],[136.71,-15.93],[136.95,-15.94],[136.98,-15.85],[137.37,-16.13],[137.73,-16.23],[138.0,-16.54],[138.0,-26.0],[129.0,-26.0],[129.0,-14.88],[129.19,-14.99],[129.16,-15.2],[129.3,-15.04],[129.23,-15.01],[129.23,-14.84],[129.48,-14.94],[129.6,-15.11],[129.56,-15.18],[129.68,-15.14],[129.5,-14.79],[129.59,-14.89],[129.58,-14.8],[129.8,-14.86],[129.9,-14.77],[129.76,-14.82],[129.81,-14.76],[129.67,-14.76],[129.58,-14.62],[129.77,-14.54],[129.53,-14.55],[129.52,-14.47],[129.45,-14.45],[129.45,-14.51],[129.36,-14.42],[129.37,-14.34],[129.51,-14.13],[129.48,-14.05],[129.54,-14.14],[129.6,-14.01],[129.75,-13.98],[129.82,-13.5],[129.9,-13.44],[130.01,-13.53],[130.28,-13.33],[130.12,-13.16],[130.14,-12.93],[130.34,-12.89],[130.35,-12.67],[130.46,-12.64]],[[136.92,-12.35],[136.88,-12.37],[136.87,-12.38],[136.92,-12.35]],[[136.48,-12.04],[136.48,-12.05],[136.46,-12.05],[136.48,-12.04]]]}},{"type":"Feature","id":7,"properties":{"STATE_CODE":"8","STATE_NAME":"Australian Capital Territory"},"geometry":{"type":"Polygon","coordinates":[[[149.4,-35.32],[149.15,-35.41],[149.1,-35.85],[149.05,-35.92],[148.96,-35.9],[148.89,-35.72],[148.79,-35.7],[148.81,-35.31],[149.12,-35.12],[149.4,-35.32]],[[149.15,-35.3],[149.08,-35.3],[149.07,-35.3],[149.15,-35.3]]]}}]}